STARLINK-31388          
1 59565U 24076B   26068.18930134 -.00003158  00000+0 -10530-3 0  9990
2 59565  43.0037  12.0667 0000819 304.7804  55.2971 15.27581070106423
NUSAT-50 (NANCY ROMAN)  
1 60493U 24149AB  26068.80227738  .00012094  00000+0  42252-3 0  9994
2 60493  97.3817 150.7693 0002523 238.0469 122.0527 15.29713355 86930
